GLOBALSTAR M035         
1 25851U 99037A   25036.99326682 -.00000104  00000+0 -15130-2 0  9998
2 25851  51.9991 347.5412 0013767 127.6911 309.0437 11.04535848 81761
GLOBALSTAR M032         
1 25852U 99037B   25037.65161098 -.00000017  00000+0  15928-2 0  9998
2 25852  51.9926 180.2734 0010136 310.8057  49.1864 11.19056341120170
GLOBALSTAR M051         
1 25853U 99037C   25037.83583660 -.00000042  00000+0  74071-3 0  9995
2 25853  51.9831 355.3493 0001041 350.8779   9.2012 11.42201518117490
GLOBALSTAR M030         
1 25854U 99037D   25037.67608974 -.00000112  00000+0 -77720-3 0  9997
2 25854  51.9858 170.1371 0004299 163.4795 196.6162 11.55103707134965
GLOBALSTAR M048         
1 25872U 99041A   25037.63703440 -.00000044  00000+0  70162-3 0  9998
2 25872  51.9371 285.8197 0012975 323.0307  72.3519 11.33854317110177
GLOBALSTAR M026         
1 25873U 99041B   25037.47894853 -.00000004  00000+0  22263-2 0  9994
2 25873  52.0008 105.7918 0001587  63.5438  35.7905 11.06827563134010
GLOBALSTAR M043         
1 25874U 99041C   25036.92411286 -.00000099  00000+0 -91030-3 0  9993
2 25874  51.9427  29.9200 0013358  89.6996 282.3872 11.25690158108093
GLOBALSTAR M028         
1 25875U 99041D   25037.87645272 -.00000056  00000+0  29040-3 0  9997
2 25875  51.9599 221.6272 0063900 147.6702 212.8099 12.50576764173874
