<?xml version="1.0" encoding="UTF-8"?>
<ndm xmlns:xsi="http://www.w3.org/2001/XMLSchema-instance" xsi:noNamespaceSchemaLocation="https://sanaregistry.org/r/ndmxml_unqualified/ndmxml-2.0.0-master-2.0.xsd">
<omm id="CCSDS_OMM_VERS" version="2.0">
<header><CREATION_DATE/><ORIGINATOR/></header><body><segment><metadata><OBJECT_NAME>GLOBALSTAR M035</OBJECT_NAME><OBJECT_ID>1999-037A</OBJECT_ID><CENTER_NAME>EARTH</CENTER_NAME><REF_FRAME>TEME</REF_FRAME><TIME_SYSTEM>UTC</TIME_SYSTEM><MEAN_ELEMENT_THEORY>SGP4</MEAN_ELEMENT_THEORY></metadata><data><meanElements><EPOCH>2025-02-05T23:50:18.253248</EPOCH><MEAN_MOTION>11.04535848</MEAN_MOTION><ECCENTRICITY>.0013767</ECCENTRICITY><INCLINATION>51.9991</INCLINATION><RA_OF_ASC_NODE>347.5412</RA_OF_ASC_NODE><ARG_OF_PERICENTER>127.6911</ARG_OF_PERICENTER><MEAN_ANOMALY>309.0437</MEAN_ANOMALY></meanElements><tleParameters><EPHEMERIS_TYPE>0</EPHEMERIS_TYPE><CLASSIFICATION_TYPE>U</CLASSIFICATION_TYPE><NORAD_CAT_ID>25851</NORAD_CAT_ID><ELEMENT_SET_NO>999</ELEMENT_SET_NO><REV_AT_EPOCH>8176</REV_AT_EPOCH><BSTAR>-.1513E-2</BSTAR><MEAN_MOTION_DOT>-.104E-5</MEAN_MOTION_DOT><MEAN_MOTION_DDOT>0</MEAN_MOTION_DDOT></tleParameters></data></segment></body></omm>
<omm id="CCSDS_OMM_VERS" version="2.0">
<header><CREATION_DATE/><ORIGINATOR/></header><body><segment><metadata><OBJECT_NAME>GLOBALSTAR M032</OBJECT_NAME><OBJECT_ID>1999-037B</OBJECT_ID><CENTER_NAME>EARTH</CENTER_NAME><REF_FRAME>TEME</REF_FRAME><TIME_SYSTEM>UTC</TIME_SYSTEM><MEAN_ELEMENT_THEORY>SGP4</MEAN_ELEMENT_THEORY></metadata><data><meanElements><EPOCH>2025-02-06T15:38:19.188672</EPOCH><MEAN_MOTION>11.19056341</MEAN_MOTION><ECCENTRICITY>.0010136</ECCENTRICITY><INCLINATION>51.9926</INCLINATION><RA_OF_ASC_NODE>180.2734</RA_OF_ASC_NODE><ARG_OF_PERICENTER>310.8057</ARG_OF_PERICENTER><MEAN_ANOMALY>49.1864</MEAN_ANOMALY></meanElements><tleParameters><EPHEMERIS_TYPE>0</EPHEMERIS_TYPE><CLASSIFICATION_TYPE>U</CLASSIFICATION_TYPE><NORAD_CAT_ID>25852</NORAD_CAT_ID><ELEMENT_SET_NO>999</ELEMENT_SET_NO><REV_AT_EPOCH>12017</REV_AT_EPOCH><BSTAR>.15928E-2</BSTAR><MEAN_MOTION_DOT>-.17E-6</MEAN_MOTION_DOT><MEAN_MOTION_DDOT>0</MEAN_MOTION_DDOT></tleParameters></data></segment></body></omm>
<omm id="CCSDS_OMM_VERS" version="2.0">
<header><CREATION_DATE/><ORIGINATOR/></header><body><segment><metadata><OBJECT_NAME>GLOBALSTAR M051</OBJECT_NAME><OBJECT_ID>1999-037C</OBJECT_ID><CENTER_NAME>EARTH</CENTER_NAME><REF_FRAME>TEME</REF_FRAME><TIME_SYSTEM>UTC</TIME_SYSTEM><MEAN_ELEMENT_THEORY>SGP4</MEAN_ELEMENT_THEORY></metadata><data><meanElements><EPOCH>2025-02-06T20:03:36.282240</EPOCH><MEAN_MOTION>11.42201518</MEAN_MOTION><ECCENTRICITY>.0001041</ECCENTRICITY><INCLINATION>51.9831</INCLINATION><RA_OF_ASC_NODE>355.3493</RA_OF_ASC_NODE><ARG_OF_PERICENTER>350.8779</ARG_OF_PERICENTER><MEAN_ANOMALY>9.2012</MEAN_ANOMALY></meanElements><tleParameters><EPHEMERIS_TYPE>0</EPHEMERIS_TYPE><CLASSIFICATION_TYPE>U</CLASSIFICATION_TYPE><NORAD_CAT_ID>25853</NORAD_CAT_ID><ELEMENT_SET_NO>999</ELEMENT_SET_NO><REV_AT_EPOCH>11749</REV_AT_EPOCH><BSTAR>.74071E-3</BSTAR><MEAN_MOTION_DOT>-.42E-6</MEAN_MOTION_DOT><MEAN_MOTION_DDOT>0</MEAN_MOTION_DDOT></tleParameters></data></segment></body></omm>
<omm id="CCSDS_OMM_VERS" version="2.0">
<header><CREATION_DATE/><ORIGINATOR/></header><body><segment><metadata><OBJECT_NAME>GLOBALSTAR M030</OBJECT_NAME><OBJECT_ID>1999-037D</OBJECT_ID><CENTER_NAME>EARTH</CENTER_NAME><REF_FRAME>TEME</REF_FRAME><TIME_SYSTEM>UTC</TIME_SYSTEM><MEAN_ELEMENT_THEORY>SGP4</MEAN_ELEMENT_THEORY></metadata><data><meanElements><EPOCH>2025-02-06T16:13:34.153536</EPOCH><MEAN_MOTION>11.55103707</MEAN_MOTION><ECCENTRICITY>.0004299</ECCENTRICITY><INCLINATION>51.9858</INCLINATION><RA_OF_ASC_NODE>170.1371</RA_OF_ASC_NODE><ARG_OF_PERICENTER>163.4795</ARG_OF_PERICENTER><MEAN_ANOMALY>196.6162</MEAN_ANOMALY></meanElements><tleParameters><EPHEMERIS_TYPE>0</EPHEMERIS_TYPE><CLASSIFICATION_TYPE>U</CLASSIFICATION_TYPE><NORAD_CAT_ID>25854</NORAD_CAT_ID><ELEMENT_SET_NO>999</ELEMENT_SET_NO><REV_AT_EPOCH>13496</REV_AT_EPOCH><BSTAR>-.7772E-3</BSTAR><MEAN_MOTION_DOT>-.112E-5</MEAN_MOTION_DOT><MEAN_MOTION_DDOT>0</MEAN_MOTION_DDOT></tleParameters></data></segment></body></omm>
<omm id="CCSDS_OMM_VERS" version="2.0">
<header><CREATION_DATE/><ORIGINATOR/></header><body><segment><metadata><OBJECT_NAME>GLOBALSTAR M048</OBJECT_NAME><OBJECT_ID>1999-041A</OBJECT_ID><CENTER_NAME>EARTH</CENTER_NAME><REF_FRAME>TEME</REF_FRAME><TIME_SYSTEM>UTC</TIME_SYSTEM><MEAN_ELEMENT_THEORY>SGP4</MEAN_ELEMENT_THEORY></metadata><data><meanElements><EPOCH>2025-02-06T15:17:19.772160</EPOCH><MEAN_MOTION>11.33854317</MEAN_MOTION><ECCENTRICITY>.0012975</ECCENTRICITY><INCLINATION>51.9371</INCLINATION><RA_OF_ASC_NODE>285.8197</RA_OF_ASC_NODE><ARG_OF_PERICENTER>323.0307</ARG_OF_PERICENTER><MEAN_ANOMALY>72.3519</MEAN_ANOMALY></meanElements><tleParameters><EPHEMERIS_TYPE>0</EPHEMERIS_TYPE><CLASSIFICATION_TYPE>U</CLASSIFICATION_TYPE><NORAD_CAT_ID>25872</NORAD_CAT_ID><ELEMENT_SET_NO>999</ELEMENT_SET_NO><REV_AT_EPOCH>11017</REV_AT_EPOCH><BSTAR>.70162E-3</BSTAR><MEAN_MOTION_DOT>-.44E-6</MEAN_MOTION_DOT><MEAN_MOTION_DDOT>0</MEAN_MOTION_DDOT></tleParameters></data></segment></body></omm>
<omm id="CCSDS_OMM_VERS" version="2.0">
<header><CREATION_DATE/><ORIGINATOR/></header><body><segment><metadata><OBJECT_NAME>GLOBALSTAR M026</OBJECT_NAME><OBJECT_ID>1999-041B</OBJECT_ID><CENTER_NAME>EARTH</CENTER_NAME><REF_FRAME>TEME</REF_FRAME><TIME_SYSTEM>UTC</TIME_SYSTEM><MEAN_ELEMENT_THEORY>SGP4</MEAN_ELEMENT_THEORY></metadata><data><meanElements><EPOCH>2025-02-06T11:29:41.152992</EPOCH><MEAN_MOTION>11.06827563</MEAN_MOTION><ECCENTRICITY>.0001587</ECCENTRICITY><INCLINATION>52.0008</INCLINATION><RA_OF_ASC_NODE>105.7918</RA_OF_ASC_NODE><ARG_OF_PERICENTER>63.5438</ARG_OF_PERICENTER><MEAN_ANOMALY>35.7905</MEAN_ANOMALY></meanElements><tleParameters><EPHEMERIS_TYPE>0</EPHEMERIS_TYPE><CLASSIFICATION_TYPE>U</CLASSIFICATION_TYPE><NORAD_CAT_ID>25873</NORAD_CAT_ID><ELEMENT_SET_NO>999</ELEMENT_SET_NO><REV_AT_EPOCH>13401</REV_AT_EPOCH><BSTAR>.22263E-2</BSTAR><MEAN_MOTION_DOT>-.4E-7</MEAN_MOTION_DOT><MEAN_MOTION_DDOT>0</MEAN_MOTION_DDOT></tleParameters></data></segment></body></omm>
<omm id="CCSDS_OMM_VERS" version="2.0">
<header><CREATION_DATE/><ORIGINATOR/></header><body><segment><metadata><OBJECT_NAME>GLOBALSTAR M043</OBJECT_NAME><OBJECT_ID>1999-041C</OBJECT_ID><CENTER_NAME>EARTH</CENTER_NAME><REF_FRAME>TEME</REF_FRAME><TIME_SYSTEM>UTC</TIME_SYSTEM><MEAN_ELEMENT_THEORY>SGP4</MEAN_ELEMENT_THEORY></metadata><data><meanElements><EPOCH>2025-02-05T22:10:43.351104</EPOCH><MEAN_MOTION>11.25690158</MEAN_MOTION><ECCENTRICITY>.0013358</ECCENTRICITY><INCLINATION>51.9427</INCLINATION><RA_OF_ASC_NODE>29.9200</RA_OF_ASC_NODE><ARG_OF_PERICENTER>89.6996</ARG_OF_PERICENTER><MEAN_ANOMALY>282.3872</MEAN_ANOMALY></meanElements><tleParameters><EPHEMERIS_TYPE>0</EPHEMERIS_TYPE><CLASSIFICATION_TYPE>U</CLASSIFICATION_TYPE><NORAD_CAT_ID>25874</NORAD_CAT_ID><ELEMENT_SET_NO>999</ELEMENT_SET_NO><REV_AT_EPOCH>10809</REV_AT_EPOCH><BSTAR>-.9103E-3</BSTAR><MEAN_MOTION_DOT>-.99E-6</MEAN_MOTION_DOT><MEAN_MOTION_DDOT>0</MEAN_MOTION_DDOT></tleParameters></data></segment></body></omm>
<omm id="CCSDS_OMM_VERS" version="2.0">
<header><CREATION_DATE/><ORIGINATOR/></header><body><segment><metadata><OBJECT_NAME>GLOBALSTAR M028</OBJECT_NAME><OBJECT_ID>1999-041D</OBJECT_ID><CENTER_NAME>EARTH</CENTER_NAME><REF_FRAME>TEME</REF_FRAME><TIME_SYSTEM>UTC</TIME_SYSTEM><MEAN_ELEMENT_THEORY>SGP4</MEAN_ELEMENT_THEORY></metadata><data><meanElements><EPOCH>2025-02-06T21:02:05.515008</EPOCH><MEAN_MOTION>12.50576764</MEAN_MOTION><ECCENTRICITY>.00639</ECCENTRICITY><INCLINATION>51.9599</INCLINATION><RA_OF_ASC_NODE>221.6272</RA_OF_ASC_NODE><ARG_OF_PERICENTER>147.6702</ARG_OF_PERICENTER><MEAN_ANOMALY>212.8099</MEAN_ANOMALY></meanElements><tleParameters><EPHEMERIS_TYPE>0</EPHEMERIS_TYPE><CLASSIFICATION_TYPE>U</CLASSIFICATION_TYPE><NORAD_CAT_ID>25875</NORAD_CAT_ID><ELEMENT_SET_NO>999</ELEMENT_SET_NO><REV_AT_EPOCH>17387</REV_AT_EPOCH><BSTAR>.2904E-3</BSTAR><MEAN_MOTION_DOT>-.56E-6</MEAN_MOTION_DOT><MEAN_MOTION_DDOT>0</MEAN_MOTION_DDOT></tleParameters></data></segment></body></omm>

</ndm>
